APRIZESAT 2             
1 28366U 04025A   22268.21522391  .00000122  00000+0  51927-4 0  9993
2 28366  98.1500 132.1899 0108322  35.6491 325.1868 14.36844824956149
SAUDICOMSAT 1           
1 28369U 04025D   22267.88510388  .00000320  00000+0  88783-4 0  9991
2 28369  98.4517 230.1981 0032410 229.1929 130.6454 14.52854726966280
SAUDICOMSAT 2           
1 28370U 04025E   22268.48006615  .00000308  00000+0  94099-4 0  9996
2 28370  98.5436 230.0584 0058724  59.3067 301.3894 14.47745471963106
APRIZESAT 1             
1 28372U 04025G   22268.46571821  .00000246  00000+0  75214-4 0  9991
2 28372  98.5047 230.1771 0045661 332.8051  27.0752 14.49845595964592
NANOSAT-1               
1 28493U 04049B   22268.29396359  .00000685  00000+0  11169-3 0  9998
2 28493  98.1162   9.1723 0004028 351.1828   8.9309 14.74109259954570
SAUDICOMSAT 7           
1 31119U 07012C   22268.40418474  .00000399  00000+0  86839-4 0  9995
2 31119  98.1917 213.3610 0060562 137.1663 223.4280 14.62165346823310
SAUDICOMSAT 6           
1 31121U 07012E   22268.43581030  .00000351  00000+0  82531-4 0  9993
2 31121  98.2318 208.6701 0074936 241.2755 118.0900 14.58950827821526
SAUDICOMSAT 5           
1 31124U 07012H   22268.42160882  .00000527  00000+0  10818-3 0  9996
2 31124  98.1609 214.8758 0052644  83.6781 277.0413 14.63895871824218
SAUDICOMSAT 3           
1 31125U 07012J   22268.35581986  .00000702  00000+0  13617-3 0  9996
2 31125  98.1269 216.1916 0043709  30.8133 329.5623 14.65732772825140
SAUDICOMSAT 4           
1 31127U 07012L   22268.44178357  .00000345  00000+0  78630-4 0  9992
2 31127  98.2143 211.7991 0067399 185.9981 174.0419 14.60677729822476
APRIZESAT 4             
1 35684U 09041D   22268.51881439  .00000552  00000+0  79836-4 0  9997
2 35684  98.3100 285.5909 0047422  32.1809 328.2281 14.79739533709866
APRIZESAT 3             
1 35686U 09041F   22268.22495311  .00001002  00000+0  11072-3 0  9995
2 35686  98.1046 357.1121 0071132 219.4723 140.1299 14.88065412713444
AISSAT 1                
1 36797U 10035C   22268.50025511  .00001255  00000+0  14560-3 0  9991
2 36797  98.2397  96.1565 0010374 199.2334 160.8491 14.87300105661449
S-NET D                 
1 43186U 18014G   22268.28683407  .00002708  00000+0  23281-3 0  9999
2 43186  97.6481 172.0844 0009446 333.2215  26.8519 14.98215422253860
S-NET B                 
1 43187U 18014H   22268.28710116  .00002721  00000+0  23388-3 0  9991
2 43187  97.6478 172.0314 0009434 333.2063  26.8671 14.98213461253867
S-NET A                 
1 43188U 18014J   22268.35419822  .00002715  00000+0  23344-3 0  9995
2 43188  97.6483 172.1664 0009435 333.2035  26.8699 14.98213642253875
S-NET C                 
1 43189U 18014K   22268.28829510  .00002710  00000+0  23302-3 0  9996
2 43189  97.6479 172.0199 0009447 333.3876  26.6861 14.98210850252416
SALSAT                  
1 46495U 20068K   22268.51252870  .00003022  00000+0  21754-3 0  9992
2 46495  97.7363 209.8951 0014916 302.0270  57.9506 15.04897341109233
